[{"OBJECT_NAME":"STARLINK-31363","OBJECT_ID":"2024-093A","EPOCH":"2026-02-24T00:50:22.750656","MEAN_MOTION":15.27573801,"ECCENTRICITY":0.00012177,"INCLINATION":43.0013,"RA_OF_ASC_NODE":282.8078,"ARG_OF_PERICENTER":269.7893,"MEAN_ANOMALY":90.2819,"EPHEMERIS_TYPE":0,"CLASSIFICATION_TYPE":"U","NORAD_CAT_ID":59782,"ELEMENT_SET_NO":999,"REV_AT_EPOCH":10064,"BSTAR":2.209321e-5,"MEAN_MOTION_DOT":3.46e-6,"MEAN_MOTION_DDOT":0},{"OBJECT_NAME":"STARLINK-31868","OBJECT_ID":"2024-093B","EPOCH":"2026-02-24T00:52:13.192320","MEAN_MOTION":15.27574978,"ECCENTRICITY":0.00014205,"INCLINATION":42.9984,"RA_OF_ASC_NODE":282.7833,"ARG_OF_PERICENTER":261.9951,"MEAN_ANOMALY":98.074,"EPHEMERIS_TYPE":0,"CLASSIFICATION_TYPE":"U","NORAD_CAT_ID":59783,"ELEMENT_SET_NO":999,"REV_AT_EPOCH":10064,"BSTAR":2.1004612e-5,"MEAN_MOTION_DOT":3.16e-6,"MEAN_MOTION_DDOT":0},{"OBJECT_NAME":"STARLINK-31848","OBJECT_ID":"2024-093C","EPOCH":"2026-02-24T08:06:01.337472","MEAN_MOTION":15.27570164,"ECCENTRICITY":6.94e-5,"INCLINATION":43.0025,"RA_OF_ASC_NODE":280.8229,"ARG_OF_PERICENTER":276.84,"MEAN_ANOMALY":83.2373,"EPHEMERIS_TYPE":0,"CLASSIFICATION_TYPE":"U","NORAD_CAT_ID":59784,"ELEMENT_SET_NO":999,"REV_AT_EPOCH":10069,"BSTAR":5.1456e-6,"MEAN_MOTION_DOT":-1.2e-6,"MEAN_MOTION_DDOT":0},{"OBJECT_NAME":"STARLINK-31890","OBJECT_ID":"2024-093D","EPOCH":"2026-02-24T00:20:46.998240","MEAN_MOTION":15.27577752,"ECCENTRICITY":0.00010776,"INCLINATION":43.0029,"RA_OF_ASC_NODE":282.6976,"ARG_OF_PERICENTER":281.4312,"MEAN_ANOMALY":78.6419,"EPHEMERIS_TYPE":0,"CLASSIFICATION_TYPE":"U","NORAD_CAT_ID":59785,"ELEMENT_SET_NO":999,"REV_AT_EPOCH":10064,"BSTAR":-2.483276e-5,"MEAN_MOTION_DOT":-9.45e-6,"MEAN_MOTION_DDOT":0},{"OBJECT_NAME":"STARLINK-31862","OBJECT_ID":"2024-093E","EPOCH":"2026-02-24T01:15:23.660352","MEAN_MOTION":15.27569775,"ECCENTRICITY":0.00012314,"INCLINATION":43.0006,"RA_OF_ASC_NODE":285.5817,"ARG_OF_PERICENTER":244.604,"MEAN_ANOMALY":115.4684,"EPHEMERIS_TYPE":0,"CLASSIFICATION_TYPE":"U","NORAD_CAT_ID":59786,"ELEMENT_SET_NO":999,"REV_AT_EPOCH":10061,"BSTAR":-3.2320054e-5,"MEAN_MOTION_DOT":-1.151e-5,"MEAN_MOTION_DDOT":0},{"OBJECT_NAME":"STARLINK-31870","OBJECT_ID":"2024-093F","EPOCH":"2026-02-23T23:35:40.380864","MEAN_MOTION":15.27582454,"ECCENTRICITY":0.00026354,"INCLINATION":43.0006,"RA_OF_ASC_NODE":285.923,"ARG_OF_PERICENTER":243.1466,"MEAN_ANOMALY":116.9117,"EPHEMERIS_TYPE":0,"CLASSIFICATION_TYPE":"U","NORAD_CAT_ID":59787,"ELEMENT_SET_NO":999,"REV_AT_EPOCH":10060,"BSTAR":-2.6871898e-5,"MEAN_MOTION_DOT":-1.002e-5,"MEAN_MOTION_DDOT":0},{"OBJECT_NAME":"STARLINK-31888","OBJECT_ID":"2024-093G","EPOCH":"2026-02-23T23:50:28.770720","MEAN_MOTION":15.27572174,"ECCENTRICITY":0.00010836,"INCLINATION":43.0028,"RA_OF_ASC_NODE":285.9976,"ARG_OF_PERICENTER":276.879,"MEAN_ANOMALY":83.1938,"EPHEMERIS_TYPE":0,"CLASSIFICATION_TYPE":"U","NORAD_CAT_ID":59788,"ELEMENT_SET_NO":999,"REV_AT_EPOCH":10060,"BSTAR":-3.389238e-6,"MEAN_MOTION_DOT":-3.55e-6,"MEAN_MOTION_DDOT":0},{"OBJECT_NAME":"STARLINK-31863","OBJECT_ID":"2024-093H","EPOCH":"2026-02-23T23:46:46.855776","MEAN_MOTION":15.27571678,"ECCENTRICITY":0.00010283,"INCLINATION":43.0002,"RA_OF_ASC_NODE":285.9801,"ARG_OF_PERICENTER":285.1887,"MEAN_ANOMALY":74.8851,"EPHEMERIS_TYPE":0,"CLASSIFICATION_TYPE":"U","NORAD_CAT_ID":59789,"ELEMENT_SET_NO":999,"REV_AT_EPOCH":10060,"BSTAR":1.4177519e-5,"MEAN_MOTION_DOT":1.28e-6,"MEAN_MOTION_DDOT":0},{"OBJECT_NAME":"STARLINK-31873","OBJECT_ID":"2024-093J","EPOCH":"2026-02-24T00:01:35.032224","MEAN_MOTION":15.27583071,"ECCENTRICITY":0.00012438,"INCLINATION":42.9999,"RA_OF_ASC_NODE":286.0557,"ARG_OF_PERICENTER":273.6721,"MEAN_ANOMALY":86.3989,"EPHEMERIS_TYPE":0,"CLASSIFICATION_TYPE":"U","NORAD_CAT_ID":59790,"ELEMENT_SET_NO":999,"REV_AT_EPOCH":10060,"BSTAR":-9.7718463e-5,"MEAN_MOTION_DOT":-2.95e-5,"MEAN_MOTION_DDOT":0},{"OBJECT_NAME":"STARLINK-31865","OBJECT_ID":"2024-093K","EPOCH":"2026-02-24T07:57:55.255392","MEAN_MOTION":15.27573717,"ECCENTRICITY":0.0001182,"INCLINATION":43.0006,"RA_OF_ASC_NODE":284.2376,"ARG_OF_PERICENTER":266.1348,"MEAN_ANOMALY":93.9368,"EPHEMERIS_TYPE":0,"CLASSIFICATION_TYPE":"U","NORAD_CAT_ID":59791,"ELEMENT_SET_NO":999,"REV_AT_EPOCH":10065,"BSTAR":-1.6515e-5,"MEAN_MOTION_DOT":-7.16e-6,"MEAN_MOTION_DDOT":0},{"OBJECT_NAME":"STARLINK-31823","OBJECT_ID":"2024-093N","EPOCH":"2026-02-24T00:12:40.545504","MEAN_MOTION":15.27582151,"ECCENTRICITY":0.00014654,"INCLINATION":43.0002,"RA_OF_ASC_NODE":286.1112,"ARG_OF_PERICENTER":275.4716,"MEAN_ANOMALY":84.5969,"EPHEMERIS_TYPE":0,"CLASSIFICATION_TYPE":"U","NORAD_CAT_ID":59794,"ELEMENT_SET_NO":999,"REV_AT_EPOCH":10060,"BSTAR":5.4602667e-5,"MEAN_MOTION_DOT":1.241e-5,"MEAN_MOTION_DDOT":0},{"OBJECT_NAME":"STARLINK-31916","OBJECT_ID":"2024-093P","EPOCH":"2026-02-24T00:18:14.302656","MEAN_MOTION":15.27576326,"ECCENTRICITY":8.64e-5,"INCLINATION":43.0014,"RA_OF_ASC_NODE":286.1409,"ARG_OF_PERICENTER":284.8678,"MEAN_ANOMALY":75.2078,"EPHEMERIS_TYPE":0,"CLASSIFICATION_TYPE":"U","NORAD_CAT_ID":59795,"ELEMENT_SET_NO":999,"REV_AT_EPOCH":10060,"BSTAR":-4.6693898e-5,"MEAN_MOTION_DOT":-1.546e-5,"MEAN_MOTION_DDOT":0},{"OBJECT_NAME":"STARLINK-31907","OBJECT_ID":"2024-093R","EPOCH":"2026-02-23T16:31:09.165792","MEAN_MOTION":15.27571163,"ECCENTRICITY":4.44e-5,"INCLINATION":42.994,"RA_OF_ASC_NODE":288.0073,"ARG_OF_PERICENTER":112.7609,"MEAN_ANOMALY":247.3289,"EPHEMERIS_TYPE":0,"CLASSIFICATION_TYPE":"U","NORAD_CAT_ID":59797,"ELEMENT_SET_NO":999,"REV_AT_EPOCH":10055,"BSTAR":0.00010672457,"MEAN_MOTION_DOT":2.675e-5,"MEAN_MOTION_DDOT":0},{"OBJECT_NAME":"STARLINK-31687","OBJECT_ID":"2024-093S","EPOCH":"2026-02-24T00:58:56.288064","MEAN_MOTION":15.27578405,"ECCENTRICITY":0.00012631,"INCLINATION":43.0022,"RA_OF_ASC_NODE":286.354,"ARG_OF_PERICENTER":267.3339,"MEAN_ANOMALY":92.7369,"EPHEMERIS_TYPE":0,"CLASSIFICATION_TYPE":"U","NORAD_CAT_ID":59798,"ELEMENT_SET_NO":999,"REV_AT_EPOCH":10060,"BSTAR":6.2835745e-5,"MEAN_MOTION_DOT":1.467e-5,"MEAN_MOTION_DDOT":0},{"OBJECT_NAME":"STARLINK-31810","OBJECT_ID":"2024-093T","EPOCH":"2026-02-24T08:29:22.399008","MEAN_MOTION":15.2757252,"ECCENTRICITY":0.0001411,"INCLINATION":43.0041,"RA_OF_ASC_NODE":284.3976,"ARG_OF_PERICENTER":261.0175,"MEAN_ANOMALY":99.0517,"EPHEMERIS_TYPE":0,"CLASSIFICATION_TYPE":"U","NORAD_CAT_ID":59799,"ELEMENT_SET_NO":999,"REV_AT_EPOCH":10065,"BSTAR":-1.5096e-7,"MEAN_MOTION_DOT":-2.66e-6,"MEAN_MOTION_DDOT":0},{"OBJECT_NAME":"STARLINK-31812","OBJECT_ID":"2024-093U","EPOCH":"2026-02-24T08:18:16.510752","MEAN_MOTION":15.27572591,"ECCENTRICITY":8.25e-5,"INCLINATION":43.002,"RA_OF_ASC_NODE":284.342,"ARG_OF_PERICENTER":273.6942,"MEAN_ANOMALY":86.3815,"EPHEMERIS_TYPE":0,"CLASSIFICATION_TYPE":"U","NORAD_CAT_ID":59800,"ELEMENT_SET_NO":999,"REV_AT_EPOCH":10072,"BSTAR":2.5497e-6,"MEAN_MOTION_DOT":-1.92e-6,"MEAN_MOTION_DDOT":0}]
