STARLINK-31363          
1 59782U 24093A   26055.03498554  .00000346  00000+0  22093-4 0  9997
2 59782  43.0013 282.8078 0001217 269.7893  90.2819 15.27573801100643
STARLINK-31868          
1 59783U 24093B   26055.03626380  .00000316  00000+0  21005-4 0  9997
2 59783  42.9984 282.7833 0001420 261.9951  98.0740 15.27574978100647
STARLINK-31848          
1 59784U 24093C   26055.33751548 -.00000120  00000+0  51456-5 0  9994
2 59784  43.0025 280.8229 0000694 276.8400  83.2373 15.27570164100696
STARLINK-31890          
1 59785U 24093D   26055.01443285 -.00000945  00000+0 -24833-4 0  9990
2 59785  43.0029 282.6976 0001077 281.4312  78.6419 15.27577752100644
STARLINK-31862          
1 59786U 24093E   26055.05235718 -.00001151  00000+0 -32320-4 0  9995
2 59786  43.0006 285.5817 0001231 244.6040 115.4684 15.27569775100614
STARLINK-31870          
1 59787U 24093F   26054.98310626 -.00001002  00000+0 -26872-4 0  9999
2 59787  43.0006 285.9230 0002635 243.1466 116.9117 15.27582454100608
STARLINK-31888          
1 59788U 24093G   26054.99338855 -.00000355  00000+0 -33892-5 0  9996
2 59788  43.0028 285.9976 0001083 276.8790  83.1938 15.27572174100603
STARLINK-31863          
1 59789U 24093H   26054.99082009  .00000128  00000+0  14178-4 0  9995
2 59789  43.0002 285.9801 0001028 285.1887  74.8851 15.27571678100601
STARLINK-31873          
1 59790U 24093J   26055.00109991 -.00002950  00000+0 -97718-4 0  9998
2 59790  42.9999 286.0557 0001243 273.6721  86.3989 15.27583071100604
STARLINK-31865          
1 59791U 24093K   26055.33188953 -.00000716  00000+0 -16515-4 0  9994
2 59791  43.0006 284.2376 0001182 266.1348  93.9368 15.27573717100655
STARLINK-31823          
1 59794U 24093N   26055.00880261  .00001241  00000+0  54603-4 0  9994
2 59794  43.0002 286.1112 0001465 275.4716  84.5969 15.27582151100609
STARLINK-31916          
1 59795U 24093P   26055.01266554 -.00001546  00000+0 -46694-4 0  9990
2 59795  43.0014 286.1409 0000864 284.8678  75.2078 15.27576326100600
STARLINK-31907          
1 59797U 24093R   26054.68830053  .00002675  00000+0  10672-3 0  9993
2 59797  42.9940 288.0073 0000444 112.7609 247.3289 15.27571163100557
STARLINK-31687          
1 59798U 24093S   26055.04092926  .00001467  00000+0  62836-4 0  9992
2 59798  43.0022 286.3540 0001263 267.3339  92.7369 15.27578405100601
STARLINK-31810          
1 59799U 24093T   26055.35373147 -.00000266  00000+0 -15096-6 0  9990
2 59799  43.0041 284.3976 0001411 261.0175  99.0517 15.27572520100650
STARLINK-31812          
1 59800U 24093U   26055.34602443 -.00000192  00000+0  25497-5 0  9998
2 59800  43.0020 284.3420 0000825 273.6942  86.3815 15.27572591100729
